H1 CPF 01  gfz 2021 06 28 12  6792 terrasarx 
H2 0702601  6201 31698    2021 06 28 12 59 42 2021 07 03 00 00 42   120 1 1  0 0 0
H9
10 0 59397  15822.000000  0    5266962.201   1807990.622  -4064059.282
10 0 59397  15942.000000  0    4781055.385   1440803.313  -4753745.121
10 0 59397  16062.000000  0    4205485.224   1057862.249  -5360219.038
10 0 59397  16182.000000  0    3550127.156    667325.270  -5872961.323
10 0 59397  16302.000000  0    2826356.284    277281.011  -6283101.751
10 0 59397  16422.000000  0    2046843.813   -104414.316  -6583561.465
10 0 59397  16542.000000  0    1225334.130   -470290.529  -6769163.810
10 0 59397  16662.000000  0     376404.298   -813405.607  -6836715.560
10 0 59397  16782.000000  0    -484791.386  -1127473.372  -6785054.714
10 0 59397  16902.000000  0   -1342784.790  -1406975.054  -6615067.813
10 0 59397  17022.000000  0   -2182065.439  -1647254.151  -6329677.215
10 0 59397  17142.000000  0   -2987354.869  -1844592.823  -5933795.364
10 0 59397  17262.000000  0   -3743879.042  -1996268.928  -5434249.615
10 0 59397  17382.000000  0   -4437639.224  -2100593.890  -4839676.929
10 0 59397  17502.000000  0   -5055674.293  -2156929.125  -4160385.550
10 0 59397  17622.000000  0   -5586308.935  -2165681.071  -3408186.943
10 0 59397  17742.000000  0   -6019383.718  -2128274.584  -2596198.328
10 0 59397  17862.000000  0   -6346460.206  -2047104.355  -1738618.218
10 0 59397  17982.000000  0   -6560996.580  -1925465.496   -850479.080
10 0 59397  18102.000000  0   -6658488.248  -1767464.521     52619.266
10 0 59397  18222.000000  0   -6636569.661  -1577912.503    954789.866
10 0 59397  18342.000000  0   -6495073.275  -1362202.746   1840146.780
10 0 59397  18462.000000  0   -6236043.810  -1126176.771   2693094.143
10 0 59397  18582.000000  0   -5863707.736   -875981.848   3498609.336
10 0 59397  18702.000000  0   -5384399.034   -617923.031   4242515.138
10 0 59397  18822.000000  0   -4806441.122   -358314.554   4911733.153
10 0 59397  18942.000000  0   -4139992.563   -103334.268   5494512.851
10 0 59397  19062.000000  0   -3396859.989    141116.221   5980636.109
10 0 59397  19182.000000  0   -2590279.656    369542.075   6361592.384
10 0 59397  19302.000000  0   -1734674.724    576973.103   6630721.644
10 0 59397  19422.000000  0    -845392.572    759067.519   6783325.131
10 0 59397  19542.000000  0      61572.381    912200.225   6816741.325
10 0 59397  19662.000000  0     969865.770   1033533.332   6730388.866
10 0 59397  19782.000000  0    1863066.986   1121068.715   6525776.157
10 0 59397  19902.000000  0    2724985.033   1173681.160   6206476.638
10 0 59397  20022.000000  0    3539952.397   1191131.528   5778071.068
10 0 59397  20142.000000  0    4293112.684   1174059.950   5248054.754
10 0 59397  20262.000000  0    4970694.658   1123959.244   4625712.676
10 0 59397  20382.000000  0    5560272.133   1043129.013   3921964.217
10 0 59397  20502.000000  0    6051002.358    934611.429   3149174.230
10 0 59397  20622.000000  0    6433834.585    802109.382   2320935.396
10 0 59397  20742.000000  0    6701686.182    649888.746   1451828.169
10 0 59397  20862.000000  0    6849582.493    482667.947    557158.490
10 0 59397  20982.000000  0    6874754.158    305496.410   -347318.740
10 0 59397  21102.000000  0    6776690.939    123625.436  -1245686.533
10 0 59397  21222.000000  0    6557148.755    -57624.826  -2122154.856
10 0 59397  21342.000000  0    6220111.130   -232999.497  -2961345.179
10 0 59397  21462.000000  0    5771707.382   -397440.525  -3748564.916
10 0 59397  21582.000000  0    5220088.998   -546212.039  -4470066.443
10 0 59397  21702.000000  0    4575267.913   -675015.981  -5113284.454
10 0 59397  21822.000000  0    3848923.449   -780095.863  -5667048.010
10 0 59397  21942.000000  0    3054181.729   -858327.728  -6121766.103
10 0 59397  22062.000000  0    2205371.563   -907295.399  -6469583.109
10 0 59397  22182.000000  0    1317763.513   -925347.921  -6704502.601
10 0 59397  22302.000000  0     407296.980   -911640.709  -6822480.655
10 0 59397  22422.000000  0    -509702.111   -866157.950  -6821488.136
10 0 59397  22542.000000  0   -1416807.188   -789716.666  -6701541.301
10 0 59397  22662.000000  0   -2297778.771   -683952.327  -6464701.990
10 0 59397  22782.000000  0   -3136848.673   -551286.113  -6115044.678
10 0 59397  22902.000000  0   -3918996.066   -394874.660  -5658594.462
10 0 59397  23022.000000  0   -4630216.127   -218542.489  -5103234.647
10 0 59397  23142.000000  0   -5257773.233    -26698.276  -4458581.384
10 0 59397  23262.000000  0   -5790435.642    175763.293  -3735829.377
10 0 59397  23382.000000  0   -6218687.581    383573.689  -2947566.803
10 0 59397  23502.000000  0   -6534911.771    591213.484  -2107562.280
10 0 59397  23622.000000  0   -6733538.024    793044.402  -1230526.848
10 0 59397  23742.000000  0   -6811155.051    983445.986   -331854.519
10 0 59397  23862.000000  0   -6766577.796   1156954.244    572654.986
10 0 59397  23982.000000  0   -6600870.218   1308398.632   1467080.415
10 0 59397  24102.000000  0   -6317324.753   1433034.231   2335667.781
10 0 59397  24222.000000  0   -5921396.073   1526665.021   3163117.383
10 0 59397  24342.000000  0   -5420590.479   1585754.857   3934861.518
10 0 59397  24462.000000  0   -4824314.637   1607523.558   4637325.708
10 0 59397  24582.000000  0   -4143689.185   1590025.981   5258168.689
10 0 59397  24702.000000  0   -3391332.437   1532212.386   5786497.704
10 0 59397  24822.000000  0   -2581118.702   1433968.903   6213056.941
10 0 59397  24942.000000  0   -1727914.586   1296137.698   6530385.534
10 0 59397  25062.000000  0    -847300.274   1120515.389   6732940.948
10 0 59397  25182.000000  0      44716.783    909830.911   6817188.780
10 0 59397  25302.000000  0     931992.193    667702.891   6781660.115
10 0 59397  25422.000000  0    1798535.527    398577.533   6626975.383
10 0 59397  25542.000000  0    2628797.154    107647.737   6355834.524
10 0 59397  25662.000000  0    3407947.497   -199245.762   5972974.129
10 0 59397  25782.000000  0    4122144.461   -515729.638   5485089.460
10 0 59397  25902.000000  0    4758783.325   -835027.616   4900723.192
10 0 59397  26022.000000  0    5306725.891  -1150102.291   4230122.001
10 0 59397  26142.000000  0    5756503.708  -1453806.299   3485061.239
10 0 59397  26262.000000  0    6100491.511  -1739040.099   2678640.260
10 0 59397  26382.000000  0    6333045.616  -1998912.202   1825051.093
10 0 59397  26502.000000  0    6450603.956  -2226898.254    939325.170
10 0 59397  26622.000000  0    6451745.152  -2416995.207     37062.098
10 0 59397  26742.000000  0    6337204.069  -2563866.024   -865853.788
10 0 59397  26862.000000  0    6109843.760  -2662971.183  -1753542.410
10 0 59397  26982.000000  0    5774583.465  -2710684.170  -2610415.607
10 0 59397  27102.000000  0    5338286.490  -2704386.889  -3421456.543
10 0 59397  27222.000000  0    4809611.418  -2642543.894  -4172485.205
10 0 59397  27342.000000  0    4198831.243  -2524754.374  -4850405.797
10 0 59397  27462.000000  0    3517623.332  -2351780.130  -5443431.130
10 0 59397  27582.000000  0    2778837.368  -2125549.207  -5941278.385
10 0 59397  27702.000000  0    1996249.288  -1849136.628  -6335336.672
10 0 59397  27822.000000  0    1184302.608  -1526722.155  -6618806.622
10 0 59397  27942.000000  0     357841.915  -1163525.475  -6786806.557
10 0 59397  28062.000000  0    -468154.561   -765721.889  -6836447.180
10 0 59397  28182.000000  0   -1278840.232   -340338.974  -6766875.343
10 0 59397  28302.000000  0   -2059761.009    104864.751  -6579287.171
10 0 59397  28422.000000  0   -2797106.992    561537.680  -6276908.730
10 0 59397  28542.000000  0   -3477951.339   1020887.043  -5864946.769
10 0 59397  28662.000000  0   -4090475.397   1473843.545  -5350509.411
10 0 59397  28782.000000  0   -4624176.523   1911236.080  -4742495.127
10 0 59397  28902.000000  0   -5070054.111   2323975.485  -4051450.314
10 0 59397  29022.000000  0   -5420769.081   2703241.312  -3289395.628
10 0 59397  29142.000000  0   -5670774.399   3040668.354  -2469625.104
10 0 59397  29262.000000  0   -5816413.830   3328529.846  -1606478.859
10 0 59397  29382.000000  0   -5855984.327   3559912.435   -715092.267
10 0 59397  29502.000000  0   -5789759.679   3728877.806    188873.004
10 0 59397  29622.000000  0   -5619975.520   3830606.980   1089511.421
10 0 59397  29742.000000  0   -5350772.523   3861522.178   1970963.119
10 0 59397  29862.000000  0   -4988100.558   3819383.810   2817701.861
10 0 59397  29982.000000  0   -4539588.294   3703360.405   3614816.221
10 0 59397  30102.000000  0   -4014379.231   3514069.070   4348279.012
10 0 59397  30222.000000  0   -3422939.892   3253585.300   5005196.899
10 0 59397  30342.000000  0   -2776845.327   2925424.275   5574037.797
10 0 59397  30462.000000  0   -2088545.748   2534492.193   6044830.872
10 0 59397  30582.000000  0   -1371121.268   2087009.750   6409336.896
10 0 59397  30702.000000  0    -638028.958   1590409.399   6661185.133
10 0 59397  30822.000000  0      97149.677   1053209.502   6795977.810
10 0 59397  30942.000000  0     820960.018    484866.835   6811362.424
10 0 59397  31062.000000  0    1520319.608   -104389.638   6707069.767
10 0 59397  31182.000000  0    2182753.469   -703742.014   6484918.941
10 0 59397  31302.000000  0    2796616.241  -1301981.551   6148788.170
10 0 59397  31422.000000  0    3351298.575  -1887717.372   5704552.221
10 0 59397  31542.000000  0    3837414.075  -2449593.888   5159985.167
10 0 59397  31662.000000  0    4246962.481  -2976511.606   4524630.080
10 0 59397  31782.000000  0    4573466.867  -3457849.122   3809637.449
10 0 59397  31902.000000  0    4812082.153  -3883680.861   3027572.798
10 0 59397  32022.000000  0    4959672.383  -4244985.161   2192195.797
10 0 59397  32142.000000  0    5014852.775  -4533837.224   1318214.729
10 0 59397  32262.000000  0    4977996.299  -4743583.051    421022.374
99
